#aV2006 11 28  0  0   .00000000      96 DD+AD WGS84 FIT  NGA
## 1403 172800.00000000   900.00000000 54067  .0000000000000
+   30     1  2  3  4  5  6  7  8  9 10 11 12 13 14 16 17 18
+         19 20 21 22 23 24 25 26 27 28 29 30 31  0  0  0  0
+          0  0  0  0  0  0  0  0  0  0  0  0  0  0  0  0  0
+          0  0  0  0  0  0  0  0  0  0  0  0  0  0  0  0  0
+          0  0  0  0  0  0  0  0  0  0  0  0  0  0  0  0  0
++         0  0  0  0  0  0  0  0  0  0  0  0  0  0  0  0  0
++         0  0  0  0  0  0  0  0  0  0  0  0  0  0  0  0  0
++         0  0  0  0  0  0  0  0  0  0  0  0  0  0  0  0  0
++         0  0  0  0  0  0  0  0  0  0  0  0  0  0  0  0  0
++         0  0  0  0  0  0  0  0  0  0  0  0  0  0  0  0  0
%c cc cc ccc ccc cccc cccc cccc cccc ccccc ccccc ccccc ccccc
%c cc cc ccc ccc cccc cccc cccc cccc ccccc ccccc ccccc ccccc
%f  0.0000000  0.000000000  0.00000000000  0.000000000000000
%f  0.0000000  0.000000000  0.00000000000  0.000000000000000
%i    0    0    0    0      0      0      0      0         0
%i    0    0    0    0      0      0      0      0         0
/*      NGA, ST. LOUIS,MO.                                  
/*   EPHEMERIS COMPUTED FROM  3 DAYS OF DATA                
/* CCCCCCCCCCCCCCCCCCCCCCCCCCCCCCCCCCCCCCCCCCCCCCCCCCCCCCCCC
/* CCCCCCCCCCCCCCCCCCCCCCCCCCCCCCCCCCCCCCCCCCCCCCCCCCCCCCCCC
*  2006 11 28 22  0   .00000000                                                 
P  1  -3414.850043  15959.782154  21145.985272     92.396106                    
V  1 -25001.099790   8223.462698 -10408.658640       .028336                    
P  2  -8220.735056 -20124.216352  15185.811077     59.035252                    
V  2  16876.574576  10283.221630  22175.576504       .035804                    
P  3   2450.446459  16426.574698 -20874.521868    430.536301                    
V  3 -23721.899226  11294.009745   6487.855377       .243077                    
P  4   6125.648824 -14624.545456  21214.196771    341.230713                    
V  4  21603.212151  16466.953538   5459.479696       .037425                    
P  5 -13657.885620 -11525.667487  19466.721514    395.572658                    
V  5   2764.126292 -25133.341446 -12638.325082       .246359                    
P  6 -25097.759913   5515.933160   7016.109763    532.901100                    
V  6   6548.800634  -6648.111513  29381.030390      -.155762                    
P  7 -21496.680640  14589.453499  -5278.043328    485.744464                    
V  7  -7987.559778    -95.114408  30164.240435      -.084115                    
P  8  14706.628329  -6459.934412 -21359.862228    -87.640386                    
V  8  20063.093759  17602.364909   8117.928013      -.013466                    
P  9 -21131.519679 -16291.635649  -1269.283223     46.623491                    
V  9   2206.463090  -1508.500506 -31608.377900       .016432                    
P 10  -2068.389629 -24826.241122  -8836.808230     93.566007                    
V 10   4266.584879 -10617.282217  29458.777466       .006270                    
P 11  23677.379820  12334.678476    798.168126     -2.522910                    
V 11  -1239.209108   4558.305058 -30050.979945       .015909                    
P 12  -3591.037647 -24538.116568   9795.635937   -294.863047                    
V 12   4074.626914 -11801.041780 -28362.575215       .147429                    
P 13  25373.567472  -6117.742872   4711.906560    117.254425                    
V 13  -5088.304619   3781.675970  31750.857780       .036900                    
P 14 -18606.927604  15199.224365  11324.046938       .190471                    
V 14 -13905.778201   3523.955794 -27846.209133       .010386                    
P 16   -894.753029  26108.972202  -4331.835759     96.423969                    
V 16  -3633.656809   5130.632808  31235.307301       .038348                    
P 17  18483.293959 -15597.026472  10845.836176     88.103220                    
V 17  13781.114436  -2771.144304 -27562.196791      -.013557                    
P 18 -15532.508618   9052.080091 -19313.368787   -253.060859                    
V 18   2973.416993 -24795.592143 -14234.197523      -.003560                    
P 19  12323.857889  11177.151857 -20625.254486     39.135201                    
V 19 -24762.407757   9195.164248  -9681.956181       .040874                    
P 20  13913.645287   8244.728679  20986.233754    -21.791037                    
V 20  -4134.885439  26554.849947  -7623.159095       .000112                    
P 21 -19469.220371    970.102406 -18184.097408     63.124719                    
V 21 -16760.077472 -16031.840383  16455.857258       .014153                    
P 22 -11865.085227  21041.014448 -10856.045824    152.446210                    
V 22    -31.496979 -14310.235857 -27310.799875       .026519                    
P 23  22068.161318   1936.188908  14713.947311    141.449646                    
V 23 -16688.022933   8686.722489  23565.355587       .008835                    
P 24  -6816.279028 -20404.949679  15610.639551     55.927501                    
V 24  16194.204654  11175.017456  22257.738133       .030046                    
P 25   1228.564023  17645.556017  20169.615784    406.736197                    
V 25 -21516.063166 -12366.176562  12532.550670      -.003126                    
P 26 -11734.252831 -10823.620730 -21740.972366    -24.516641                    
V 26  24751.665615  -9323.334857  -8329.774730      -.165742                    
P 27  21241.869952   1499.687411 -15432.163376     80.401634                    
V 27  15903.378073  13269.691502  22002.354437       .019106                    
P 28  12916.678259 -17928.181075 -14171.005265     13.195506                    
V 28   -528.457642  18811.314533 -24122.335277      -.008955                    
P 29  -7042.533992 -12770.654994 -21981.870037    227.509541                    
V 29  26255.596505 -10760.923327  -1828.706217       .259338                    
P 30 -15556.124763   2306.240514  21089.488700     17.831194                    
V 30   2237.123173 -27477.870958   4698.900514       .011901                    
P 31  -1801.069856  16855.159710  20630.187082    -32.975598                    
V 31 -20964.666262 -15022.941735  10582.563005       .088217                    
EOF
